COMMENT,ORIGINATOR,NORAD_CAT_ID,OBJECT_NAME,OBJECT_TYPE,CLASSIFICATION_TYPE,INTLDES,EPOCH,EPOCH_MICROSECONDS,MEAN_MOTION,ECCENTRICITY,INCLINATION,RA_OF_ASC_NODE,ARG_OF_PERICENTER,MEAN_ANOMALY,EPHEMERIS_TYPE,ELEMENT_SET_NO,REV_AT_EPOCH,BSTAR,MEAN_MOTION_DOT,MEAN_MOTION_DDOT,FILE,TLE_LINE0,TLE_LINE1,TLE_LINE2,OBJECT_ID,OBJECT_NUMBER,SEMIMAJOR_AXIS,PERIOD,APOGEE,PERIGEE,DECAYED
"GENERATED VIA SPACETRACK.ORG API","18 SPCS","55089","SPACEBEE-163","PAYLOAD","U","23001CJ","2023-04-13 02:39:54","790848","15.17537316","0.0014526","97.4832","163.8592","224.5307","135.476","0","999","1522","0.0008333","0.00016722","0","3886564","0 SPACEBEE-163","1 55089U 23001CJ  23103.11105082  .00016722  00000-0  83330-3 0  9998","2 55089  97.4832 163.8592 0014526 224.5307 135.4760 15.17537316 15222","2023-001CJ","55089","6891.423","94.891","523.299","503.278","0"
"GENERATED VIA SPACETRACK.ORG API","18 SPCS","55089","SPACEBEE-163","PAYLOAD","U","23001CJ","2023-04-13 13:44:34","67328","15.17552129","0.0014555","97.4833","164.3154","222.8074","137.2028","0","999","1529","0.00081538","0.00016367","0","3886954","0 SPACEBEE-163","1 55089U 23001CJ  23103.57261652  .00016367  00000-0  81538-3 0  9997","2 55089  97.4833 164.3154 0014555 222.8074 137.2028 15.17552129 15290","2023-001CJ","55089","6891.378","94.890","523.274","503.213","0"
"GENERATED VIA SPACETRACK.ORG API","18 SPCS","55089","SPACEBEE-163","PAYLOAD","U","23001CJ","2023-04-14 03:59:06","818496","15.17573997","0.0014554","97.4834","164.9019","220.4665","139.5487","0","999","1538","0.00087056","0.00017493","0","3887333","0 SPACEBEE-163","1 55089U 23001CJ  23104.16605114  .00017493  00000-0  87056-3 0  9990","2 55089  97.4834 164.9019 0014554 220.4665 139.5487 15.17573997 15386","2023-001CJ","55089","6891.312","94.888","523.207","503.148","0"
"GENERATED VIA SPACETRACK.ORG API","18 SPCS","55089","SPACEBEE-163","PAYLOAD","U","23001CJ","2023-04-14 21:23:32","558784","15.17600797","0.0014618","97.4836","165.619","217.7809","142.2399","0","999","1549","0.0009527","0.00019169","0","3887587","0 SPACEBEE-163","1 55089U 23001CJ  23104.89134906  .00019169  00000-0  95270-3 0  9995","2 55089  97.4836 165.6190 0014618 217.7809 142.2399 15.17600797 15490","2023-001CJ","55089","6891.231","94.887","523.170","503.022","0"
"GENERATED VIA SPACETRACK.ORG API","18 SPCS","55089","SPACEBEE-163","PAYLOAD","U","23001CJ","2023-04-15 03:43:19","791552","15.17611178","0.0014648","97.4836","165.8796","216.8903","143.1324","0","999","1553","0.00094445","0.00019008","0","3887974","0 SPACEBEE-163","1 55089U 23001CJ  23105.15509018  .00019008  00000-0  94445-3 0  9990","2 55089  97.4836 165.8796 0014648 216.8903 143.1324 15.17611178 15530","2023-001CJ","55089","6891.200","94.886","523.159","502.970","0"
"GENERATED VIA SPACETRACK.ORG API","18 SPCS","55089","SPACEBEE-163","PAYLOAD","U","23001CJ","2023-04-15 17:57:50","507136","15.17635059","0.0014702","97.4834","166.4661","214.7883","145.2391","0","999","1562","0.00097611","0.00019663","0","3888171","0 SPACEBEE-163","1 55089U 23001CJ  23105.74850124  .00019663  00000-0  97611-3 0  9997","2 55089  97.4834 166.4661 0014702 214.7883 145.2391 15.17635059 15622","2023-001CJ","55089","6891.127","94.884","523.124","502.861","0"
"GENERATED VIA SPACETRACK.ORG API","18 SPCS","55089","SPACEBEE-163","PAYLOAD","U","23001CJ","2023-04-16 03:27:30","469824","15.17652834","0.0014735","97.4833","166.857","213.5114","146.5188","0","999","1568","0.001003","0.00020219","0","3888388","0 SPACEBEE-163","1 55089U 23001CJ  23106.14410266  .00020219  00000-0  10030-2 0  9999","2 55089  97.4833 166.8570 0014735 213.5114 146.5188 15.17652834 15688","2023-001CJ","55089","6891.074","94.883","523.093","502.785","0"
"GENERATED VIA SPACETRACK.ORG API","18 SPCS","55089","SPACEBEE-163","PAYLOAD","U","23001CJ","2023-04-16 03:27:30","469824","15.17652834","0.0014735","97.4833","166.857","213.5114","146.5188","0","999","1568","0.001003","0.00020219","0","3888626","0 SPACEBEE-163","1 55089U 23001CJ  23106.14410266  .00020219  00000-0  10030-2 0  9999","2 55089  97.4833 166.8570 0014735 213.5114 146.5188 15.17652834 15688","2023-001CJ","55089","6891.074","94.883","523.093","502.785","0"
"GENERATED VIA SPACETRACK.ORG API","18 SPCS","55089","SPACEBEE-163","PAYLOAD","U","23001CJ","2023-04-16 17:41:59","717472","15.17678534","0.0014788","97.483","167.4434","211.604","148.4307","0","999","1577","0.0010268","0.00020717","0","3888799","0 SPACEBEE-163","1 55089U 23001CJ  23106.73749673  .00020717  00000-0  10268-2 0  9997","2 55089  97.4830 167.4434 0014788 211.6040 148.4307 15.17678534 15775","2023-001CJ","55089","6890.996","94.882","523.051","502.670","0"
"GENERATED VIA SPACETRACK.ORG API","18 SPCS","55089","SPACEBEE-163","PAYLOAD","U","23001CJ","2023-04-17 03:11:38","727168","15.17696624","0.0014861","97.4827","167.8346","210.4888","149.5483","0","999","1583","0.0010928","0.00022069","0","3889215","0 SPACEBEE-163","1 55089U 23001CJ  23107.13308712  .00022069  00000-0  10928-2 0  9992","2 55089  97.4827 167.8346 0014861 210.4888 149.5483 15.17696624 15830","2023-001CJ","55089","6890.941","94.881","523.047","502.565","0"
"GENERATED VIA SPACETRACK.ORG API","18 SPCS","55089","SPACEBEE-163","PAYLOAD","U","23001CJ","2023-04-17 17:26:06","481824","15.17724018","0.0014892","97.4826","168.421","208.2812","151.7615","0","999","1592","0.0011125","0.00022488","0","3889391","0 SPACEBEE-163","1 55089U 23001CJ  23107.72646391  .00022488  00000-0  11125-2 0  9990","2 55089  97.4826 168.4210 0014892 208.2812 151.7615 15.17724018 15923","2023-001CJ","55089","6890.858","94.879","522.985","502.461","0"
"GENERATED VIA SPACETRACK.ORG API","18 SPCS","55089","SPACEBEE-163","PAYLOAD","U","23001CJ","2023-04-18 02:55:44","456448","15.17743496","0.001494","97.4823","168.8121","206.9172","153.1288","0","999","1598","0.0011774","0.00023821","0","3889684","0 SPACEBEE-163","1 55089U 23001CJ  23108.12204232  .00023821  00000-0  11774-2 0  9991","2 55089  97.4823 168.8121 0014940 206.9172 153.1288 15.17743496 15982","2023-001CJ","55089","6890.799","94.878","522.959","502.369","0"
"GENERATED VIA SPACETRACK.ORG API","18 SPCS","55089","SPACEBEE-163","PAYLOAD","U","23001CJ","2023-04-18 17:10:10","706880","15.17771281","0.0014996","97.4824","169.3985","204.7302","155.3214","0","999","1607","0.0012218","0.00024746","0","3889987","0 SPACEBEE-163","1 55089U 23001CJ  23108.71540170  .00024746  00000-0  12218-2 0  9991","2 55089  97.4824 169.3985 0014996 204.7302 155.3214 15.17771281 16076","2023-001CJ","55089","6890.715","94.876","522.913","502.247","0"
"GENERATED VIA SPACETRACK.ORG API","18 SPCS","55089","SPACEBEE-163","PAYLOAD","U","23001CJ","2023-04-19 02:39:47","616192","15.17791684","0.0015023","97.4822","169.7896","203.4385","156.6165","0","999","1613","0.001266","0.00025662","0","3890216","0 SPACEBEE-163","1 55089U 23001CJ  23109.11096778  .00025662  00000-0  12660-2 0  9995","2 55089  97.4822 169.7896 0015023 203.4385 156.6165 15.17791684 16133","2023-001CJ","55089","6890.653","94.875","522.870","502.166","0"
"GENERATED VIA SPACETRACK.ORG API","18 SPCS","55089","SPACEBEE-163","PAYLOAD","U","23001CJ","2023-04-19 02:39:47","616192","15.17791684","0.0015023","97.4822","169.7896","203.4385","156.6165","0","999","1613","0.001266","0.00025662","0","3890383","0 SPACEBEE-163","1 55089U 23001CJ  23109.11096778  .00025662  00000-0  12660-2 0  9995","2 55089  97.4822 169.7896 0015023 203.4385 156.6165 15.17791684 16133","2023-001CJ","55089","6890.653","94.875","522.870","502.166","0"
"GENERATED VIA SPACETRACK.ORG API","18 SPCS","55089","SPACEBEE-163","PAYLOAD","U","23001CJ","2023-04-19 16:54:12","238848","15.1782093","0.0015075","97.4822","170.376","201.1078","158.9535","0","999","1622","0.0012578","0.00025517","0","3890520","0 SPACEBEE-163","1 55089U 23001CJ  23109.70430832  .00025517  00000-0  12578-2 0  9990","2 55089  97.4822 170.3760 0015075 201.1078 158.9535 15.17820930 16225","2023-001CJ","55089","6890.565","94.873","522.817","502.042","0"
"GENERATED VIA SPACETRACK.ORG API","18 SPCS","55089","SPACEBEE-163","PAYLOAD","U","23001CJ","2023-04-20 03:58:43","995936","15.17840448","0.0015086","97.4822","170.8324","199.4449","160.6211","0","999","1629","0.0010134","0.00020543","0","3890827","0 SPACEBEE-163","1 55089U 23001CJ  23110.16578699  .00020543  00000-0  10134-2 0  9996","2 55089  97.4822 170.8324 0015086 199.4449 160.6211 15.17840448 16293","2023-001CJ","55089","6890.506","94.872","522.766","501.976","0"
"GENERATED VIA SPACETRACK.ORG API","18 SPCS","55089","SPACEBEE-163","PAYLOAD","U","23001CJ","2023-04-20 03:58:43","995936","15.17840448","0.0015086","97.4822","170.8324","199.4449","160.6211","0","999","1629","0.0010134","0.00020543","0","3891038","0 SPACEBEE-163","1 55089U 23001CJ  23110.16578699  .00020543  00000-0  10134-2 0  9996","2 55089  97.4822 170.8324 0015086 199.4449 160.6211 15.17840448 16293","2023-001CJ","55089","6890.506","94.872","522.766","501.976","0"
"GENERATED VIA SPACETRACK.ORG API","18 SPCS","55089","SPACEBEE-163","PAYLOAD","U","23001CJ","2023-04-20 21:22:58","565568","15.17872324","0.0015173","97.4818","171.5494","196.8551","163.2181","0","999","1640","0.0010525","0.00021361","0","3891109","0 SPACEBEE-163","1 55089U 23001CJ  23110.89095562  .00021361  00000-0  10525-2 0  9992","2 55089  97.4818 171.5494 0015173 196.8551 163.2181 15.17872324 16402","2023-001CJ","55089","6890.409","94.870","522.729","501.819","0"
"GENERATED VIA SPACETRACK.ORG API","18 SPCS","55089","SPACEBEE-163","PAYLOAD","U","23001CJ","2023-04-21 10:02:24","722880","15.17893081","0.0015243","97.4816","172.0705","195.2176","164.8602","0","999","1648","0.00094687","0.00019217","0","3891495","0 SPACEBEE-163","1 55089U 23001CJ  23111.41834170  .00019217  00000-0  94687-3 0  9996","2 55089  97.4816 172.0705 0015243 195.2176 164.8602 15.17893081 16481","2023-001CJ","55089","6890.346","94.868","522.714","501.708","0"
